OBJECT_NAME,OBJECT_ID,EPOCH,MEAN_MOTION,ECCENTRICITY,INCLINATION,RA_OF_ASC_NODE,ARG_OF_PERICENTER,MEAN_ANOMALY,EPHEMERIS_TYPE,CLASSIFICATION_TYPE,NORAD_CAT_ID,ELEMENT_SET_NO,REV_AT_EPOCH,BSTAR,MEAN_MOTION_DOT,MEAN_MOTION_DDOT
TDRS 13,2017-047A,2026-07-22T07:50:44.853792,1.00272599,.00150784,3.4615,3.5910,111.7880,290.9849,0,U,42915,999,3270,0,-.97E-6,0
QZS-3 (MICHIBIKI-3),2017-048A,2026-07-22T12:40:38.595936,1.00269245,.00028501,0.0590,203.2900,283.6707,130.4854,0,U,42917,999,3261,0,-.344E-5,0
AMAZONAS 5,2017-053A,2026-07-22T05:53:57.691104,1.00273613,.00013565,0.0333,320.9316,135.0236,231.5240,0,U,42934,999,3239,0,-.279E-5,0
ASIASAT 9,2017-057A,2026-07-22T15:19:24.461184,1.00269552,.00020682,0.0156,54.9271,56.3405,181.0650,0,U,42942,999,3221,0,-.356E-5,0
INTELSAT 37E (IS-37E),2017-059A,2026-07-22T07:48:52.532928,1.00272528,.00028999,0.0159,72.2000,52.8079,274.2842,0,U,42950,999,3241,0,-.137E-5,0
BSAT-4A,2017-059B,2026-07-22T14:06:48.879072,1.00272085,.00035648,0.0337,354.6379,89.9216,177.3050,0,U,42951,999,3215,0,-.346E-5,0
QZS-4 (MICHIBIKI-4),2017-062A,2026-07-21T06:10:27.954336,1.00289434,.07469394,40.0879,343.0509,268.6822,279.3148,0,U,42965,999,3214,0,-.358E-5,0
SES-11 (ECHOSTAR 105),2017-063A,2026-07-22T10:49:23.007936,1.00271989,.00029288,0.0173,349.0173,119.8094,248.7540,0,U,42967,999,3207,0,-.86E-6,0
KOREASAT 5A,2017-067A,2026-07-22T12:48:38.791584,1.00272126,.00010505,0.0118,24.1781,73.1301,148.2768,0,U,42984,999,3188,0,-.354E-5,0
ALCOMSAT 1,2017-078A,2026-07-22T11:12:13.318848,1.00272399,.00025093,0.0348,276.1375,203.7480,323.5684,0,U,43039,999,3164,0,-.183E-5,0
SBIRS GEO-3 (USA 282),2018-009A,2026-07-22T12:24:38.845728,1.00272605,.00020604,2.2102,13.7294,100.2266,213.0625,0,U,43162,999,3119,0,.131E-5,0
AL YAH 3,2018-012A,2026-07-22T11:13:20.711712,1.00272185,.00037297,1.6404,82.6806,34.4517,331.3038,0,U,43174,999,3120,0,-.153E-5,0
SES-14,2018-012B,2026-07-22T11:05:43.940832,1.00272544,.00011635,0.0138,38.0090,75.2897,305.8316,0,U,43175,999,737,0,-.275E-5,0
GOES 17,2018-022A,2026-07-22T10:53:45.089376,1.00272005,.00006755,1.0251,85.1599,57.9242,231.0538,0,U,43226,999,3077,0,-.18E-5,0
HISPASAT 30W-6,2018-023A,2026-07-22T07:45:30.356064,1.00272436,.00053236,0.0425,52.4066,42.9836,291.0638,0,U,43228,999,3075,0,-.213E-5,0
SUPERBIRD-B3,2018-033A,2026-07-22T12:00:38.512800,1.00272231,.00015183,0.0276,281.6619,217.3488,143.3987,0,U,43271,999,3041,0,-.89E-6,0
HYLAS 4,2018-033B,2026-07-22T11:09:43.558272,1.00269442,.00006288,0.0332,256.8587,222.5537,314.7329,0,U,43272,999,3041,0,-.23E-5,0
IRNSS-1I,2018-035A,2026-07-21T21:28:12.531936,1.00274701,.00184053,28.8336,73.6540,179.0574,64.0489,0,U,43286,999,3042,0,.62E-6,0
USA 283,2018-036A,2026-07-19T12:06:14.262336,1.00271912,.0000802,0.0121,113.1212,85.3615,54.4575,0,U,43339,999,2561,0,-.322E-5,0
COSMOS 2526,2018-037A,2026-07-22T20:29:03.314976,1.00272030,.0000678,0.0273,97.1910,132.0411,146.6871,0,U,43432,999,3031,0,-.34E-5,0
APSTAR-6C,2018-041A,2026-07-21T17:08:21.046272,1.00272947,.0000212,0.0438,302.0343,323.4886,65.0495,0,U,43450,999,3015,0,-.315E-5,0
BANGABANDHUSAT-1,2018-044A,2026-07-22T12:48:38.791584,1.00271149,.00022598,0.0126,111.5828,17.6694,122.2838,0,U,43463,999,3006,0,-.359E-5,0
SES-12,2018-049A,2026-07-22T21:33:25.739712,1.00273854,.0000536,0.0112,7.6187,233.0632,118.3104,0,U,43488,999,2977,0,-.266E-5,0
FENGYUN 2H,2018-050A,2026-07-22T15:07:10.634016,1.00267285,.00020277,3.1204,78.6598,124.9608,42.5614,0,U,43491,999,2979,0,-.124E-5,0
BEIDOU-2 IGSO-7,2018-057A,2026-07-16T19:52:42.225600,1.00242392,.01049148,55.1987,162.7987,237.9691,299.1450,0,U,43539,999,2942,0,-.84E-6,0
TELSTAR 19V,2018-059A,2026-07-22T11:01:21.860256,1.00271786,.00031581,0.0338,186.9869,300.9925,274.5662,0,U,43562,999,2949,0,-.276E-5,0
TELKOM 4 (MERAH PUTIH),2018-064A,2026-07-22T14:09:24.997824,1.00271195,.000132,0.0172,74.8323,46.0478,139.7995,0,U,43587,999,2923,0,-.34E-5,0
TELSTAR 18V,2018-069A,2026-07-22T12:31:38.501760,1.00270941,.00019937,0.0225,292.5565,186.2622,147.3619,0,U,43611,999,2899,0,-.29E-5,0
AZERSPACE 2 (IS-38),2018-074A,2026-07-22T06:24:09.797184,1.00272744,.00014774,0.0195,53.3468,64.7486,323.0693,0,U,43632,999,2879,0,.14E-5,0
HORIZONS-3E,2018-074B,2026-07-22T12:47:38.600160,1.00271998,.00004174,0.0349,234.9691,74.8803,351.3246,0,U,43633,999,2869,0,-.27E-6,0
AEHF-4 (USA 288),2018-079A,2026-07-22T11:00:14.468256,1.00273409,.00597728,1.4358,5.3825,355.2089,37.1729,0,U,43651,999,2865,0,-.272E-5,0
