{"epoch":1784762836,"count":18316,"objects":[{"id":"42915","name":"TDRS 13","type":"PAYLOAD","l1":"1 42915U 17047A   26203.32690803 -.00000097  00000-0  00000-0 0  9991","l2":"2 42915   3.4615   3.5910 0015078 111.7880 290.9849  1.00272599 32705"},{"id":"42917","name":"QZS-3","type":"PAYLOAD","l1":"1 42917U 17048A   26203.52822449 -.00000344  00000-0  00000-0 0  9994","l2":"2 42917   0.0590 203.2900 0002850 283.6707 130.4854  1.00269245 32619"},{"id":"42934","name":"AMAZONAS 5","type":"PAYLOAD","l1":"1 42934U 17053A   26203.24580661 -.00000279  00000-0  00000-0 0  9992","l2":"2 42934   0.0333 320.9316 0001357 135.0236 231.5240  1.00273613 32390"},{"id":"42942","name":"ASIASAT 9","type":"PAYLOAD","l1":"1 42942U 17057A   26203.63847756 -.00000356  00000-0  00000-0 0  9995","l2":"2 42942   0.0156  54.9271 0002068  56.3405 181.0650  1.00269552 32211"},{"id":"42950","name":"INTELSAT 37E","type":"PAYLOAD","l1":"1 42950U 17059A   26203.32560802 -.00000137  00000-0  00000-0 0  9993","l2":"2 42950   0.0159  72.2000 0002900  52.8079 274.2842  1.00272528 32416"},{"id":"42951","name":"BSAT-4A","type":"PAYLOAD","l1":"1 42951U 17059B   26203.58806573 -.00000346  00000-0  00000-0 0  9992","l2":"2 42951   0.0337 354.6379 0003565  89.9216 177.3050  1.00272085 32156"},{"id":"42965","name":"QZS-4","type":"PAYLOAD","l1":"1 42965U 17062A   26202.25726799 -.00000358  00000-0  00000-0 0  9998","l2":"2 42965  40.0879 343.0509 0746939 268.6822 279.3148  1.00289434 32147"},{"id":"42967","name":"ECHOSTAR 105/SES 11","type":"PAYLOAD","l1":"1 42967U 17063A   26203.45096074 -.00000086  00000-0  00000-0 0  9998","l2":"2 42967   0.0173 349.0173 0002929 119.8094 248.7540  1.00271989 32071"},{"id":"42984","name":"KOREASAT 5A","type":"PAYLOAD","l1":"1 42984U 17067A   26203.53378231 -.00000354  00000-0  00000-0 0  9996","l2":"2 42984   0.0118  24.1781 0001051  73.1301 148.2768  1.00272126 31881"},{"id":"43039","name":"ALCOMSAT 1","type":"PAYLOAD","l1":"1 43039U 17078A   26203.46682082 -.00000183  00000-0  00000-0 0  9994","l2":"2 43039   0.0348 276.1375 0002509 203.7480 323.5684  1.00272399 31645"},{"id":"43162","name":"SBIRS GEO 3 (USA 282)","type":"PAYLOAD","l1":"1 43162U 18009A   26203.51711627  .00000131  00000-0  00000-0 0  9992","l2":"2 43162   2.2102  13.7294 0002060 100.2266 213.0625  1.00272605 31192"},{"id":"43174","name":"AL YAH 3","type":"PAYLOAD","l1":"1 43174U 18012A   26203.46760083 -.00000153  00000-0  00000-0 0  9998","l2":"2 43174   1.6404  82.6806 0003730  34.4517 331.3038  1.00272185 31206"},{"id":"43175","name":"SES 14","type":"PAYLOAD","l1":"1 43175U 18012B   26203.46231413 -.00000275  00000-0  00000-0 0  9994","l2":"2 43175   0.0138  38.0090 0001163  75.2897 305.8316  1.00272544  7371"},{"id":"43226","name":"GOES 17","type":"PAYLOAD","l1":"1 43226U 18022A   26203.45399409 -.00000180  00000-0  00000-0 0  9996","l2":"2 43226   1.0251  85.1599 0000676  57.9242 231.0538  1.00272005 30779"},{"id":"43228","name":"HISPASAT 30W-6","type":"PAYLOAD","l1":"1 43228U 18023A   26203.32326801 -.00000213  00000-0  00000-0 0  9998","l2":"2 43228   0.0425  52.4066 0005324  42.9836 291.0638  1.00272436 30750"},{"id":"43271","name":"SUPERBIRD 8","type":"PAYLOAD","l1":"1 43271U 18033A   26203.50044575 -.00000089  00000-0  00000-0 0  9993","l2":"2 43271   0.0276 281.6619 0001518 217.3488 143.3987  1.00272231 30416"},{"id":"43272","name":"HYLAS 4","type":"PAYLOAD","l1":"1 43272U 18033B   26203.46508748 -.00000230  00000-0  00000-0 0  9994","l2":"2 43272   0.0332 256.8587 0000629 222.5537 314.7329  1.00269442 30417"},{"id":"43286","name":"IRNSS 1I","type":"PAYLOAD","l1":"1 43286U 18035A   26202.89458949  .00000062  00000-0  00000-0 0  9996","l2":"2 43286  28.8336  73.6540 0018405 179.0574  64.0489  1.00274701 30423"},{"id":"43339","name":"USA 283","type":"PAYLOAD","l1":"1 43339U 18036A   26200.50433174 -.00000322  00000-0  00000+0 0  9994","l2":"2 43339   0.0121 113.1212 0000802  85.3615  54.4575  1.00271912 25614"},{"id":"43432","name":"COSMOS 2526","type":"PAYLOAD","l1":"1 43432U 18037A   26203.85351059 -.00000340  00000-0  00000+0 0  9991","l2":"2 43432   0.0273  97.1910 0000678 132.0411 146.6871  1.00272030 30315"},{"id":"43450","name":"APSTAR 6C","type":"PAYLOAD","l1":"1 43450U 18041A   26202.71413248 -.00000315  00000-0  00000+0 0  9991","l2":"2 43450   0.0438 302.0343 0000212 323.4886  65.0495  1.00272947 30157"},{"id":"43463","name":"BANGABANDHUSAT-1","type":"PAYLOAD","l1":"1 43463U 18044A   26203.53378231 -.00000359  00000-0  00000-0 0  9990","l2":"2 43463   0.0126 111.5828 0002260  17.6694 122.2838  1.00271149 30060"},{"id":"43488","name":"SES 12","type":"PAYLOAD","l1":"1 43488U 18049A   26203.89821458 -.00000266  00000-0  00000+0 0  9991","l2":"2 43488   0.0112   7.6187 0000536 233.0632 118.3104  1.00273854 29778"},{"id":"43491","name":"FENGYUN 2H","type":"PAYLOAD","l1":"1 43491U 18050A   26203.62998419 -.00000124  00000-0  00000-0 0  9994","l2":"2 43491   3.1204  78.6598 0002028 124.9608  42.5614  1.00267285 29798"},{"id":"43539","name":"BEIDOU IGSO-7","type":"PAYLOAD","l1":"1 43539U 18057A   26197.82826650 -.00000084  00000-0  00000-0 0  9990","l2":"2 43539  55.1987 162.7987 0104915 237.9691 299.1450  1.00242392 29428"},{"id":"43562","name":"TELSTAR 19V","type":"PAYLOAD","l1":"1 43562U 18059A   26203.45928079 -.00000276  00000-0  00000-0 0  9996","l2":"2 43562   0.0338 186.9869 0003158 300.9925 274.5662  1.00271786 29496"},{"id":"43587","name":"TELKOM-4","type":"PAYLOAD","l1":"1 43587U 18064A   26203.58987266 -.00000340  00000-0  00000-0 0  9998","l2":"2 43587   0.0172  74.8323 0001320  46.0478 139.7995  1.00271195 29236"},{"id":"43611","name":"TELSTAR 18V","type":"PAYLOAD","l1":"1 43611U 18069A   26203.52197340 -.00000290  00000-0  00000-0 0  9995","l2":"2 43611   0.0225 292.5565 0001994 186.2622 147.3619  1.00270941 28993"},{"id":"43632","name":"AZERSPACE 2/INTELSAT 38","type":"PAYLOAD","l1":"1 43632U 18074A   26203.26678006  .00000140  00000-0  00000-0 0  9991","l2":"2 43632   0.0195  53.3468 0001477  64.7486 323.0693  1.00272744 28797"},{"id":"43633","name":"HORIZONS 3E","type":"PAYLOAD","l1":"1 43633U 18074B   26203.53308565 -.00000027  00000-0  00000-0 0  9997","l2":"2 43633   0.0349 234.9691 0000417  74.8803 351.3246  1.00271998 28699"},{"id":"43651","name":"AEHF 4 (USA 288)","type":"PAYLOAD","l1":"1 43651U 18079A   26203.45850079 -.00000272  00000-0  00000-0 0  9997","l2":"2 43651   1.4358   5.3825 0059773 355.2089  37.1729  1.00273409 28654"}]}